0 COSMOS 2251 DEB
1 35790U 93036ASL 13282.29965630  .00131246  00000-0  41108-2 0  2829
2 35790 073.9834 259.1566 0102176 161.0286 263.7945 15.27514516240600
0 COSMOS 2251 DEB
1 35790U 93036ASL 13283.28166786  .00101137  00000-0  31628-2 0  2837
2 35790 073.9839 257.0679 0101641 158.6820 264.2882 15.27719677240756
0 COSMOS 2251 DEB
1 35790U 93036ASL 13283.62010650  .00111811  00000-0  34872-2 0  2848
2 35790 073.9835 256.3450 0101815 157.7292 325.8125 15.27748345240801
0 COSMOS 2251 DEB
1 35790U 93036ASL 13288.25816267  .00159856  00000-0  48391-2 0  2853
2 35790 073.9833 246.4689 0100569 146.7791 281.1732 15.28614756241516
0 COSMOS 2251 DEB
1 35790U 93036ASL 13289.32035141  .00138077  00000-0  41621-2 0  2868
2 35790 073.9844 244.2075 0100110 144.4285 006.6351 15.28863313241677
0 COSMOS 2251 DEB
1 35790U 93036ASL 13289.57647110  .00134293  00000-0  40501-2 0  2873
2 35790 073.9848 243.6602 0099933 143.6426 336.4602 15.28877235241714
0 COSMOS 2251 DEB
1 35790U 93036ASL 13290.22052204  .00132550  00000-0  39843-2 0  2883
2 35790 073.9844 242.2844 0099737 141.9933 281.5739 15.29003144241812
0 COSMOS 2251 DEB
1 35790U 93036ASL 13291.53957294  .00123271  00000-0  36763-2 0  2890
2 35790 073.9843 239.4702 0099596 138.9050 342.8717 15.29289935242015
0 COSMOS 2251 DEB
1 35790U 93036ASL 13293.50096300  .00122799  00000-0  36183-2 0  2903
2 35790 073.9835 235.2860 0099224 134.5240 342.4302 15.29694852242313
0 COSMOS 2251 DEB
1 35790U 93036ASL 13296.17195606  .00151809  00000-0  43742-2 0  2912
2 35790 073.9828 229.5845 0098334 128.6769 293.7217 15.30358322242724
